NORAD_CAT_ID,OBJECT_NAME,OBJECT_TYPE,EPOCH,MEAN_MOTION,ECCENTRICITY,INCLINATION,RA_OF_ASC_NODE,ARG_OF_PERICENTER,MEAN_ANOMALY,BSTAR,MEAN_MOTION_DOT,MEAN_MOTION_DDOT,TLE_LINE0,TLE_LINE1,TLE_LINE2,SEMIMAJOR_AXIS,PERIOD,APOGEE,PERIGEE,DECAYED
53174.0,STARLINK-4205,PAYLOAD,2024-08-18 03:33:17,15.08842974,0.000151,53.2152,206.3332,94.4205,265.6959,-3.9398e-05,-9.15e-06,0.0,0 STARLINK-4205,1 53174U 22083AU  24231.14811956 -.00000915  00000-0 -39398-4 0  9995,2 53174  53.2152 206.3332 0001510  94.4205 265.6959 15.08842974116020,6917.871,95.437,540.781,538.692,0.0
53174.0,STARLINK-4205,PAYLOAD,2024-08-18 08:19:27,15.08843193,0.0001562,53.2167,205.4415,98.133,261.9839,-9.6492e-06,-4.42e-06,0.0,0 STARLINK-4205,1 53174U 22083AU  24231.34684112 -.00000442  00000-0 -96492-5 0  9993,2 53174  53.2167 205.4415 0001562  98.1330 261.9839 15.08843193115417,6917.871,95.437,540.816,538.655,0.0
53174.0,STARLINK-4205,PAYLOAD,2024-08-19 04:59:27,15.08840214,0.0001456,53.2161,201.575,78.0856,282.0299,-1.1364e-06,-3.06e-06,0.0,0 STARLINK-4205,1 53174U 22083AU  24232.20796245 -.00000306  00000-0 -11364-5 0  9994,2 53174  53.2161 201.5750 0001456  78.0856 282.0299 15.08840214116182,6917.88,95.438,540.752,538.737,0.0
53174.0,STARLINK-4205,PAYLOAD,2024-08-20 04:50:15,15.08836761,0.0001477,53.2164,197.121,97.6417,262.4743,9.0438e-05,1.152e-05,0.0,0 STARLINK-4205,1 53174U 22083AU  24233.20156456  .00001152  00000-0  90438-4 0  9995,2 53174  53.2164 197.1210 0001477  97.6417 262.4743 15.08836761115692,6917.89,95.438,540.777,538.734,0.0
53174.0,STARLINK-4205,PAYLOAD,2024-08-21 04:41:02,15.08840933,0.0001442,53.2163,192.6603,96.7455,263.3701,0.0001197,1.618e-05,0.0,0 STARLINK-4205,1 53174U 22083AU  24234.19516388  .00001618  00000-0  11970-3 0  9998,2 53174  53.2163 192.6603 0001442  96.7455 263.3701 15.08840933116489,6917.878,95.437,540.74,538.745,0.0
53174.0,STARLINK-4205,PAYLOAD,2024-08-21 06:16:25,15.08843002,0.000141,53.216,192.3623,94.4664,265.6489,0.0001361,1.879e-05,0.0,0 STARLINK-4205,1 53174U 22083AU  24234.26140226  .00001879  00000-0  13610-3 0  9992,2 53174  53.2160 192.3623 0001410  94.4664 265.6489 15.08843002115855,6917.871,95.437,540.712,538.761,0.0
